{
    "links": {
        "self": "http://www.neowsapp.com/rest/v1/neo/3763278?api_key=iIulBulltgU6a56xZRHN4H3l9WmuAYTsLGpBGhQ2"
    },
    "id": "3763278",
    "neo_reference_id": "3763278",
    "name": "(2016 VR1)",
    "designation": "2016 VR1",
    "nasa_jpl_url": "http://ssd.jpl.nasa.gov/sbdb.cgi?sstr=3763278",
    "absolute_magnitude_h": 23.1,
    "estimated_diameter": {
        "kilometers": {
            "estimated_diameter_min": 0.063760979,
            "estimated_diameter_max": 0.1425738833
        },
        "meters": {
            "estimated_diameter_min": 63.7609789875,
            "estimated_diameter_max": 142.5738833281
        },
        "miles": {
            "estimated_diameter_min": 0.0396192233,
            "estimated_diameter_max": 0.0885912765
        },
        "feet": {
            "estimated_diameter_min": 209.1895703015,
            "estimated_diameter_max": 467.7620993781
        }
    },
    "is_potentially_hazardous_asteroid": false,
    "close_approach_data": [
        {
            "close_approach_date": "2016-11-07",
            "close_approach_date_full": "2016-Nov-07 00:54",
            "epoch_date_close_approach": 1478480040000,
            "relative_velocity": {
                "kilometers_per_second": "3.7955025605",
                "kilometers_per_hour": "13663.8092179543",
                "miles_per_hour": "8490.1596776783"
            },
            "miss_distance": {
                "astronomical": "0.2062353319",
                "lunar": "80.2255441091",
                "kilometers": "30852366.370983053",
                "miles": "19170771.5024420114"
            },
            "orbiting_body": "Earth"
        }
    ],
    "orbital_data": {
        "orbit_id": "12",
        "orbit_determination_date": "2017-08-05 06:17:25",
        "first_observation_date": "2016-11-05",
        "last_observation_date": "2016-12-28",
        "data_arc_in_days": 53,
        "observations_used": 60,
        "orbit_uncertainty": "7",
        "minimum_orbit_intersection": ".221983",
        "jupiter_tisserand_invariant": "3.216",
        "epoch_osculation": "2459000.5",
        "eccentricity": ".528907220189985",
        "semi_major_axis": "2.572335407384593",
        "inclination": ".7427300511444719",
        "ascending_node_longitude": "98.71570847258259",
        "orbital_period": "1506.918693609412",
        "perihelion_distance": "1.211808637668535",
        "perihelion_argument": "308.3982746715448",
        "aphelion_distance": "3.932862177100652",
        "perihelion_time": "2459206.258326823520",
        "mean_anomaly": "310.8447284046589",
        "mean_motion": ".2388980915338693",
        "equinox": "J2000",
        "orbit_class": {
            "orbit_class_type": "AMO",
            "orbit_class_description": "Near-Earth asteroid orbits similar to that of 1221 Amor",
            "orbit_class_range": "1.017 AU < q (perihelion) < 1.3 AU"
        }
    },
    "is_sentry_object": false
}